#Pass ID: 20250122_080207_FENGYUN 3F
#Satellite: FENGYUN 3F
#Configuration: FENGYUN 3F
#Start time: 2025-01-22 08:02:12.323390

#LorettStation: 1.0.0 05.05.2024
#Station: Regia
#Location: 37.494653 lon 55.929028 lat
#TLE: 1 57490U 23111A   25021.60903743  .00000232  00000+0  12962-3 0  9994
#TLE: 2 57490  98.7454  94.4707 0001411 133.4461 226.6832 14.19979898 76269

#Time	Az	El	Level	SNR
#Closed at: 2025-01-22 08:02:07.325391